{"type": "FeatureCollection", "features": [ {"type": "Feature", "properties": {"norad_id": 38755, "name": "SPOT 6", "group": "resource", "lat": -81.5519436946145, "lon": 148.84263544532155, "alt_km": 705.8009183619151, "timestamp": "2025-12-04T21:36:15.531217+00:00", "meta": {"OBJECT_NAME": "SPOT 6", "OBJECT_ID": "2012-047A", "EPOCH": "2025-12-04T15:26:27.346848", "MEAN_MOTION": 14.58591586, "ECCENTRICITY": 0.00010541, "INCLINATION": 98.1583, "RA_OF_ASC_NODE": 43.5765, "ARG_OF_PERICENTER": 100.8298, "MEAN_ANOMALY": 259.302, "EPHEMERIS_TYPE": 0, "CLASSIFICATION_TYPE": "U", "NORAD_CAT_ID": 38755, "ELEMENT_SET_NO": 999, "REV_AT_EPOCH": 70469, "BSTAR": 0.00019077138, "MEAN_MOTION_DOT": 8.42e-06, "MEAN_MOTION_DDOT": 0}, "tle": {"line1": "1 38755U 12047A   25338.64337207  .00000842  00000+0  19077-3 0  9995", "line2": "2 38755  98.1583  43.5765 0001054 100.8298 259.3020 14.58591586704691"}}, "geometry": {"type": "Point", "coordinates": [148.84263544532155, -81.5519436946145]}}, {"type": "Feature", "properties": {"norad_id": 39019, "name": "PLEIADES 1B", "group": "resource", "lat": 11.966482351821902, "lon": -126.57750391403097, "alt_km": 699.0497441897942, "timestamp": "2025-12-04T21:36:15.531227+00:00", "meta": {"OBJECT_NAME": "PLEIADES 1B", "OBJECT_ID": "2012-068A", "EPOCH": "2025-12-04T15:53:53.600352", "MEAN_MOTION": 14.58540955, "ECCENTRICITY": 0.00012443, "INCLINATION": 98.1804, "RA_OF_ASC_NODE": 51.4414, "ARG_OF_PERICENTER": 87.4728, "MEAN_ANOMALY": 272.6614, "EPHEMERIS_TYPE": 0, "CLASSIFICATION_TYPE": "U", "NORAD_CAT_ID": 39019, "ELEMENT_SET_NO": 999, "REV_AT_EPOCH": 69249, "BSTAR": 0.00019599181, "MEAN_MOTION_DOT": 8.65e-06, "MEAN_MOTION_DDOT": 0}, "tle": {"line1": "1 39019U 12068A   25338.66242593  .00000865  00000+0  19599-3 0  9991", "line2": "2 39019  98.1804  51.4414 0001244  87.4728 272.6614 14.58540955692494"}}, "geometry": {"type": "Point", "coordinates": [-126.57750391403097, 11.966482351821902]}}, {"type": "Feature", "properties": {"norad_id": 39030, "name": "GOKTURK 2", "group": "resource", "lat": -82.10239554288407, "lon": -102.15052444773379, "alt_km": 652.2113288247183, "timestamp": "2025-12-04T21:36:15.531237+00:00", "meta": {"OBJECT_NAME": "GOKTURK 2", "OBJECT_ID": "2012-073A", "EPOCH": "2025-12-04T15:29:33.156096", "MEAN_MOTION": 14.75274093, "ECCENTRICITY": 8.138e-05, "INCLINATION": 97.6898, "RA_OF_ASC_NODE": 180.697, "ARG_OF_PERICENTER": 97.9269, "MEAN_ANOMALY": 262.2033, "EPHEMERIS_TYPE": 0, "CLASSIFICATION_TYPE": "U", "NORAD_CAT_ID": 39030, "ELEMENT_SET_NO": 999, "REV_AT_EPOCH": 69582, "BSTAR": 0.00019293896, "MEAN_MOTION_DOT": 1.259e-05, "MEAN_MOTION_DDOT": 0}, "tle": {"line1": "1 39030U 12073A   25338.64552264  .00001259  00000+0  19294-3 0  9997", "line2": "2 39030  97.6898 180.6970 0000813  97.9269 262.2033 14.75274093695829"}}, "geometry": {"type": "Point", "coordinates": [-102.15052444773379, -82.10239554288407]}}, {"type": "Feature", "properties": {"norad_id": 39084, "name": "LANDSAT 8", "group": "resource", "lat": 18.034824606239354, "lon": 44.39530174692098, "alt_km": 702.566662987937, "timestamp": "2025-12-04T21:36:15.531247+00:00", "meta": {"OBJECT_NAME": "LANDSAT 8", "OBJECT_ID": "2013-008A", "EPOCH": "2025-12-04T14:55:42.959136", "MEAN_MOTION": 14.57102636, "ECCENTRICITY": 0.00011633, "INCLINATION": 98.2083, "RA_OF_ASC_NODE": 46.815, "ARG_OF_PERICENTER": 84.5934, "MEAN_ANOMALY": 275.5397, "EPHEMERIS_TYPE": 0, "CLASSIFICATION_TYPE": "U", "NORAD_CAT_ID": 39084, "ELEMENT_SET_NO": 999, "REV_AT_EPOCH": 66956, "BSTAR": 0.00028570818, "MEAN_MOTION_DOT": 1.242e-05, "MEAN_MOTION_DDOT": 0}, "tle": {"line1": "1 39084U 13008A   25338.62202499  .00001242  00000+0  28571-3 0  9995", "line2": "2 39084  98.2083  46.8150 0001163  84.5934 275.5397 14.57102636669569"}}, "geometry": {"type": "Point", "coordinates": [44.39530174692098, 18.034824606239354]}}, {"type": "Feature", "properties": {"norad_id": 39086, "name": "SARAL", "group": "resource", "lat": -29.57537746770496, "lon": 167.83076867984, "alt_km": 790.1329306539428, "timestamp": "2025-12-04T21:36:15.531257+00:00", "meta": {"OBJECT_NAME": "SARAL", "OBJECT_ID": "2013-009A", "EPOCH": "2025-12-04T15:02:22.525440", "MEAN_MOTION": 14.32752755, "ECCENTRICITY": 0.00026687, "INCLINATION": 98.5506, "RA_OF_ASC_NODE": 162.6629, "ARG_OF_PERICENTER": 124.2602, "MEAN_ANOMALY": 235.8836, "EPHEMERIS_TYPE": 0, "CLASSIFICATION_TYPE": "U", "NORAD_CAT_ID": 39086, "ELEMENT_SET_NO": 999, "REV_AT_EPOCH": 66774, "BSTAR": 0.00012000982, "MEAN_MOTION_DOT": 2.83e-06, "MEAN_MOTION_DDOT": 0}, "tle": {"line1": "1 39086U 13009A   25338.62664960  .00000283  00000+0  12001-3 0  9998", "line2": "2 39086  98.5506 162.6629 0002668 124.2602 235.8836 14.32752755667748"}}, "geometry": {"type": "Point", "coordinates": [167.83076867984, -29.57537746770496]}}, {"type": "Feature", "properties": {"norad_id": 39150, "name": "GAOFEN-1", "group": "resource", "lat": -44.737541124654676, "lon": 57.64038115329075, "alt_km": 657.5451616895998, "timestamp": "2025-12-04T21:36:15.531293+00:00", "meta": {"OBJECT_NAME": "GAOFEN-1", "OBJECT_ID": "2013-018A", "EPOCH": "2025-12-04T15:18:14.369184", "MEAN_MOTION": 14.76512118, "ECCENTRICITY": 0.00177327, "INCLINATION": 97.9336, "RA_OF_ASC_NODE": 49.4399, "ARG_OF_PERICENTER": 168.4108, "MEAN_ANOMALY": 191.7514, "EPHEMERIS_TYPE": 0, "CLASSIFICATION_TYPE": "U", "NORAD_CAT_ID": 39150, "ELEMENT_SET_NO": 999, "REV_AT_EPOCH": 67953, "BSTAR": 0.0002386025, "MEAN_MOTION_DOT": 1.615e-05, "MEAN_MOTION_DDOT": 0}, "tle": {"line1": "1 39150U 13018A   25338.63766631  .00001615  00000+0  23860-3 0  9994", "line2": "2 39150  97.9336  49.4399 0017732 168.4108 191.7514 14.76512118679537"}}, "geometry": {"type": "Point", "coordinates": [57.64038115329075, -44.737541124654676]}}, {"type": "Feature", "properties": {"norad_id": 39160, "name": "VNREDSAT 1", "group": "resource", "lat": -15.603194973662914, "lon": 36.68286815877813, "alt_km": 682.3110200371511, "timestamp": "2025-12-04T21:36:15.531306+00:00", "meta": {"OBJECT_NAME": "VNREDSAT 1", "OBJECT_ID": "2013-021B", "EPOCH": "2025-12-04T15:07:07.733568", "MEAN_MOTION": 14.64904167, "ECCENTRICITY": 0.00013524, "INCLINATION": 97.9385, "RA_OF_ASC_NODE": 34.1888, "ARG_OF_PERICENTER": 83.8741, "MEAN_ANOMALY": 276.2616, "EPHEMERIS_TYPE": 0, "CLASSIFICATION_TYPE": "U", "NORAD_CAT_ID": 39160, "ELEMENT_SET_NO": 999, "REV_AT_EPOCH": 67180, "BSTAR": 0.00026652547, "MEAN_MOTION_DOT": 1.379e-05, "MEAN_MOTION_DDOT": 0}, "tle": {"line1": "1 39160U 13021B   25338.62995062  .00001379  00000+0  26653-3 0  9990", "line2": "2 39160  97.9385  34.1888 0001352  83.8741 276.2616 14.64904167671800"}}, "geometry": {"type": "Point", "coordinates": [36.68286815877813, -15.603194973662914]}}, {"type": "Feature", "properties": {"norad_id": 39227, "name": "ARIRANG-5 (KOMPSAT-5)", "group": "resource", "lat": 26.73356853722367, "lon": 159.45218372173684, "alt_km": 550.245759985105, "timestamp": "2025-12-04T21:36:15.531317+00:00", "meta": {"OBJECT_NAME": "ARIRANG-5 (KOMPSAT-5)", "OBJECT_ID": "2013-042A", "EPOCH": "2025-12-04T15:05:59.836992", "MEAN_MOTION": 15.04511177, "ECCENTRICITY": 0.00041856, "INCLINATION": 97.6152, "RA_OF_ASC_NODE": 163.0491, "ARG_OF_PERICENTER": 79.4034, "MEAN_ANOMALY": 280.7663, "EPHEMERIS_TYPE": 0, "CLASSIFICATION_TYPE": "U", "NORAD_CAT_ID": 39227, "ELEMENT_SET_NO": 999, "REV_AT_EPOCH": 67460, "BSTAR": 0.0002428846, "MEAN_MOTION_DOT": 3.341e-05, "MEAN_MOTION_DDOT": 0}, "tle": {"line1": "1 39227U 13042A   25338.62916478  .00003341  00000+0  24288-3 0  9994", "line2": "2 39227  97.6152 163.0491 0004185  79.4034 280.7663 15.04511177674601"}}, "geometry": {"type": "Point", "coordinates": [159.45218372173684, 26.73356853722367]}}, {"type": "Feature", "properties": {"norad_id": 39418, "name": "SKYSAT-A", "group": "resource", "lat": -21.35997839013141, "lon": -153.57090772399934, "alt_km": 530.7978516620233, "timestamp": "2025-12-04T21:36:15.531327+00:00", "meta": {"OBJECT_NAME": "SKYSAT-A", "OBJECT_ID": "2013-066C", "EPOCH": "2025-12-04T14:21:31.071456", "MEAN_MOTION": 15.11511267, "ECCENTRICITY": 0.00203957, "INCLINATION": 97.4121, "RA_OF_ASC_NODE": 29.0547, "ARG_OF_PERICENTER": 266.6601, "MEAN_ANOMALY": 93.2297, "EPHEMERIS_TYPE": 0, "CLASSIFICATION_TYPE": "U", "NORAD_CAT_ID": 39418, "ELEMENT_SET_NO": 999, "REV_AT_EPOCH": 65907, "BSTAR": 0.00045062807, "MEAN_MOTION_DOT": 7.609e-05, "MEAN_MOTION_DDOT": 0}, "tle": {"line1": "1 39418U 13066C   25338.59827629  .00007609  00000+0  45063-3 0  9992", "line2": "2 39418  97.4121  29.0547 0020395 266.6601  93.2297 15.11511267659073"}}, "geometry": {"type": "Point", "coordinates": [-153.57090772399934, -21.35997839013141]}}, {"type": "Feature", "properties": {"norad_id": 39419, "name": "DUBAISAT-2", "group": "resource", "lat": 73.88874309287519, "lon": -57.362869130159815, "alt_km": 533.8877565887233, "timestamp": "2025-12-04T21:36:15.531337+00:00", "meta": {"OBJECT_NAME": "DUBAISAT-2", "OBJECT_ID": "2013-066D", "EPOCH": "2025-12-04T14:54:05.203584", "MEAN_MOTION": 15.08233485, "ECCENTRICITY": 0.00113188, "INCLINATION": 97.4438, "RA_OF_ASC_NODE": 329.2799, "ARG_OF_PERICENTER": 351.3378, "MEAN_ANOMALY": 8.7654, "EPHEMERIS_TYPE": 0, "CLASSIFICATION_TYPE": "U", "NORAD_CAT_ID": 39419, "ELEMENT_SET_NO": 999, "REV_AT_EPOCH": 65704, "BSTAR": 0.00060328969, "MEAN_MOTION_DOT": 9.298e-05, "MEAN_MOTION_DDOT": 0}, "tle": {"line1": "1 39419U 13066D   25338.62089356  .00009298  00000+0  60329-3 0  9992", "line2": "2 39419  97.4438 329.2799 0011318 351.3378   8.7654 15.08233485657049"}}, "geometry": {"type": "Point", "coordinates": [-57.362869130159815, 73.88874309287519]}}]}